CUTE-1 (CO-55)          
1 27844U 03031E   22188.54392239  .00000146  00000+0  84839-4 0  9996
2 27844  98.6777 195.9261 0010828  48.9431 311.2681 14.22462792986725
CUBESAT XI-IV (CO-57)   
1 27848U 03031J   22188.51317385  .00000127  00000+0  76912-4 0  9998
2 27848  98.6823 196.4114 0010866  61.8882 298.3393 14.22018562986536
CUBESAT XI-V            
1 28895U 05043F   22188.33451959  .00000491  00000+0  10177-3 0  9996
2 28895  98.1092 319.4091 0017971  80.2893 280.0338 14.64372677890328
CUTE-1.7+APD II (CO-65) 
1 32785U 08021C   22188.51498214  .00001024  00000+0  11262-3 0  9992
2 32785  97.6582 158.7292 0013015 160.2479 199.9246 14.89642419769478
AAUSAT-II               
1 32788U 08021F   22188.48275462  .00002563  00000+0  22387-3 0  9998
2 32788  97.5329 173.0897 0012379  59.3164 300.9277 14.97600103771431
DELFI-C3 (DO-64)        
1 32789U 08021G   22188.57474314  .00007032  00000+0  38872-3 0  9998
2 32789  97.3378 214.1486 0008322 248.0755 111.9593 15.14157061774974
SEEDS II (CO-66)        
1 32791U 08021J   22188.15093634  .00001764  00000+0  17579-3 0  9994
2 32791  97.6122 163.8490 0014136 120.2184 240.0437 14.92743040770137
SWISSCUBE               
1 35932U 09051B   22188.56815614  .00000372  00000+0  93882-4 0  9999
2 35932  98.5669  45.0654 0007454 355.9932   4.1205 14.56885381679022
BEESAT-1                
1 35933U 09051C   22188.86641708  .00000405  00000+0  10113-3 0  9996
2 35933  98.5610  46.9878 0005931  10.3863 349.7456 14.56899729679229
ITUPSAT1                
1 35935U 09051E   22188.55273102  .00000292  00000+0  77517-4 0  9999
2 35935  98.5710  46.7163 0008294  10.8866 349.2509 14.56006327678834
TISAT 1                 
1 36799U 10035E   22188.55940114  .00001323  00000+0  13322-3 0  9995
2 36799  98.1809  39.7947 0012678  35.7014 324.5050 14.92965693650963
M-CUBED & EXP-1 PRIME   
1 37855U 11061F   22188.34907652  .00003948  00000+0  17693-3 0  9996
2 37855 101.7115 317.9567 0152353   2.7319 357.4694 15.12656919584241
AEROCUBE 4.5A           
1 38767U 12048K   22188.05230032  .00001554  00000+0  11824-3 0  9995
2 38767  64.6643  49.2929 0175443 257.2071 100.9388 14.94936927153715
AEROCUBE 4.5B           
1 38768U 12048L   22188.47273929  .00003259  00000+0  21200-3 0  9997
2 38768  64.6667   2.0746 0162442 252.4876 105.8432 14.99698310154150
STRAND-1                
1 39090U 13009E   22188.51564725  .00000101  00000+0  50049-4 0  9993
2 39090  98.4038  26.1274 0008425 204.7598 155.3184 14.35299545490277
BRITE-AUSTRIA           
1 39091U 13009F   22188.50064910  .00000063  00000+0  37051-4 0  9999
2 39091  98.4053  25.2841 0009728 212.9916 147.0664 14.35280498490309
SOMP                    
1 39134U 13015E   22188.58134229  .00008772  00000+0  31256-3 0  9998
2 39134  64.8626 355.8113 0035306 276.4092  83.3020 15.28914909509937
BEESAT-3                
1 39135U 13015F   22188.53691467  .00005920  00000+0  24564-3 0  9992
2 39135  64.8667  32.4868 0038454 282.5784  77.1046 15.24165802509172
BEESAT-2                
1 39136U 13015G   22188.86063322  .00007400  00000+0  31866-3 0  9990
2 39136  64.8752  39.7046 0017475 297.3623  62.5727 15.23181935509507
NEE-01 PEGASO           
1 39151U 13018B   22188.51079330  .00000784  00000+0  10797-3 0  9996
2 39151  97.9929 294.1060 0016757 185.4707 174.6324 14.80975237496659
ESTCUBE 1               
1 39161U 13021C   22188.39452741  .00000515  00000+0  87730-4 0  9992
2 39161  97.9079 265.1120 0009520   6.3330 353.7998 14.72981389492406
POPACS 1                
1 39268U 13055D   22188.39499982  .00010268  00000+0  25756-3 0  9990
2 39268  80.9952 218.0423 0570958 140.2360 224.2178 14.50804981456194
POPACS 2                
1 39269U 13055E   22188.26547079  .00003453  00000+0  95575-4 0  9993
2 39269  81.0123 275.5629 0645159 289.4711  63.7883 14.33151910453021
POPACS 3                
1 39270U 13055F   22188.07670827  .00004572  00000+0  13730-3 0  9997
2 39270  81.0153 308.9772 0688653  24.1111 339.0730 14.22109992431421
ZACUBE-1 (TSHEPISOSAT)  
1 39417U 13066B   22188.48248574  .00001263  00000+0  15974-3 0  9993
2 39417  97.6372 159.0761 0057250 340.6715  19.2327 14.82402142466091
WNISAT-1                
1 39423U 13066H   22188.46504798  .00000293  00000+0  66407-4 0  9991
2 39423  97.7520  68.4691 0175701  75.3283 286.7306 14.53500892457359
TRITON-1                
1 39427U 13066M   22188.76933554  .00000718  00000+0  11962-3 0  9991
2 39427  97.8135 123.6827 0111166 199.0796 160.6232 14.69004547461951
DELFI-N3XT              
1 39428U 13066N   22188.82168095  .00001088  00000+0  17466-3 0  9995
2 39428  97.8146 122.3060 0116160 212.1915 147.2164 14.69243914461709
GOMX-1                  
1 39430U 13066Q   22188.66913421  .00000865  00000+0  16270-3 0  9995
2 39430  97.8088  94.7139 0148933 341.8034  17.7870 14.60233526459241
CUBEBUG-2 (LO-74)       
1 39440U 13066AA  22188.84685891  .00001398  00000+0  19497-3 0  9999
2 39440  97.7270 145.5469 0080253  65.7426 295.2143 14.77052715464498
NEE-02 KRYSAOR          
1 39441U 13066AB  22188.79886376  .00000945  00000+0  13784-3 0  9995
2 39441  97.7381 142.6759 0082147  79.3181 281.7266 14.75773964464192
FUNCUBE-1 (AO-73)       
1 39444U 13066AE  22188.48448491  .00001436  00000+0  17633-3 0  9999
2 39444  97.6252 161.4860 0055768 328.6759  31.1137 14.83497271464493
UWE-3                   
1 39446U 13066AG  22188.42761047  .00001197  00000+0  16015-3 0  9997
2 39446  97.6863 151.6283 0069440  25.4497 335.0108 14.79617573463415
AEROCUBE 5A             
1 39465U 13072D   22188.62545485  .00019232  00000+0  11305-2 0  9998
2 39465 120.4885  27.8310 0196244 301.2623  56.9353 14.97056108152641
AEROCUBE 5B             
1 39466U 13072E   22188.56118408  .00070782  00000+0  25392-2 0  9991
2 39466 120.4567 116.2873 0140169 324.4508  34.7294 15.19325124153786
BRITE-CA1 (TORONTO)     
1 40020U 14033L   22188.67436202  .00000428  00000+0  80581-4 0  9997
2 40020  97.7804 346.6068 0086406 198.0842 161.7285 14.67057256430732
DUCHIFAT-1              
1 40021U 14033M   22188.44732250  .00001656  00000+0  16507-3 0  9995
2 40021  98.0133 139.0128 0012078 342.6084  17.4720 14.92966336437680
NANOSATC-BR1            
1 40024U 14033Q   22188.53496557  .00001893  00000+0  19338-3 0  9993
2 40024  97.9862 132.3663 0011660 349.2172  10.8794 14.91800727436976
QB50P1                  
1 40025U 14033R   22188.53077681  .00001385  00000+0  14743-3 0  9998
2 40025  97.9608 126.0874 0012206 358.8650   1.2538 14.90566229436754
QB50P2                  
1 40032U 14033Y   22188.49686378  .00001406  00000+0  15170-3 0  9999
2 40032  97.9381 121.3590 0011605 357.0345   3.0802 14.89988209436609
PERSEUS-M2              
1 40037U 14033AD  22188.55946239  .00000544  00000+0  66596-4 0  9997
2 40037  97.8962 110.6687 0014731  17.9486 342.2247 14.87128214436114
PERSEUS-M1              
1 40039U 14033AF  22188.55951482  .00000552  00000+0  68146-4 0  9997
2 40039  97.8864 108.3951 0014566  17.1188 343.0516 14.86737363435995
POLYITAN-1              
1 40042U 14033AJ  22188.81320993  .00001875  00000+0  19718-3 0  9996
2 40042  97.9713 127.5898 0014140 349.0320  11.0587 14.90602670437190
TIGRISAT                
1 40043U 14033AK  22188.51117874  .00000657  00000+0  10190-3 0  9998
2 40043  97.6563  16.6883 0060764  91.5104 269.3068 14.75042158432587
AEROCUBE 6A             
1 40045U 14033AM  22188.52965659  .00000704  00000+0  10539-3 0  9993
2 40045  97.6659  25.5370 0058482  79.4908 281.2884 14.76431497432742
AEROCUBE 6B             
1 40046U 14033AN  22188.77321865  .00001479  00000+0  21220-3 0  9995
2 40046  97.6573  24.2213 0057358  77.0147 283.7461 14.76784884433166
UKUBE-1                 
1 40074U 14037F   22188.89667710  .00000917  00000+0  11328-3 0  9999
2 40074  98.3796  70.6342 0003251 214.6687 145.4317 14.85454810433102
BRITE-PL2 (HEWELIUSZ)   
1 40119U 14049B   22188.75834283  .00000754  00000+0  94243-4 0  9995
2 40119  97.8846 284.1757 0017490 171.1558 188.9968 14.85162291427115
FIREBIRD 4              
1 40378U 15003C   22188.46784596  .00009724  00000+0  28876-3 0  9996
2 40378  99.0989  58.0636 0098317 317.6086  41.7583 15.30361237411482
GRIFEX                  
1 40379U 15003D   22188.55157567  .00006459  00000+0  22869-3 0  9997
2 40379  99.1106  43.8649 0114880   0.4271 359.7038 15.23512554410699
CP10 (EXOCUBE)          
1 40380U 15003E   22188.56672011  .00004767  00000+0  18422-3 0  9996
2 40380  99.1198  36.6172 0123480  24.5729 336.1316 15.20065516410218
TIANWANG 1A (TW-1A)     
1 40928U 15051D   22188.88346272  .00029896  00000+0  35458-3 0  9997
2 40928  97.0366 211.3744 0004653 323.0417 160.3755 15.61153980381420
EXACTVIEW 9             
1 40936U 15052G   22188.56571390  .00001248  00000+0  83788-4 0  9994
2 40936   6.0047  30.0101 0009768  81.1627 278.9606 14.77183334366241
AEROCUBE 5C             
1 40965U 15058B   22188.57874332  .00000979  00000+0  12497-3 0  9993
2 40965  64.7776  30.2819 0190526 193.8306 165.7540 14.75644574151933
AEROCUBE 7              
1 40966U 15058C   22188.56973925  .00001296  00000+0  15801-3 0  9996
2 40966  64.7776  27.4536 0188553 193.4852 166.1178 14.76202930151936
ATHENOXAT 1             
1 41168U 15077C   22188.67304560  .00008680  00000+0  34223-3 0  9990
2 41168  14.9981 300.5262 0010248 169.6715 229.2307 15.21366019363395
GALASSIA                
1 41170U 15077E   22188.66373759  .00007338  00000+0  29064-3 0  9994
2 41170  14.9889 291.5410 0010778 191.6128 168.3945 15.20646423363468
VELOX-II                
1 41171U 15077F   22188.58577109  .00005421  00000+0  23825-3 0  9991
2 41171  14.9924   6.4069 0007899  28.9080 331.1678 15.15985155362678
HORYU-4                 
1 41340U 16012D   22188.48987334  .00001735  00000+0  11801-3 0  9998
2 41340  31.0031 231.1582 0013170  39.9035 320.2567 15.03412362350746
